{
    "week": 289,
    "satellites": [
        {
            "Name": "COSMOS 2433 (720)",
            "Line1": "1 32275U 07052A   24294.51098067 -.00000060  00000+0  00000+0 0  9995",
            "Line2": "2 32275  65.8844 336.2092 0005636 240.7875 119.2205  2.13104013132218",
            "SatelliteNumber": "32275",
            "Classification": "U",
            "LaunchYear": "07",
            "LaunchNumber": "052",
            "PieceOfLaunch": "A",
            "EpochYear": "24",
            "EpochDay": 294.51098067,
            "FirstDerivativeMeanMotion": -6e-07,
            "SecondDerivativeMeanMotion": "00000+0",
            "BSTAR": "00000+0",
            "SetNumber": "999",
            "Inclination": 65.8844,
            "RAAN": 336.2092,
            "Eccentricity": 0.0005636,
            "ArgumentOfPerigee": 240.7875,
            "MeanAnomaly": 119.2205,
            "MeanMotion": 2.13104013,
            "RevolutionNumber": "13221"
        },
        {
            "Name": "COSMOS 2432 (719)",
            "Line1": "1 32276U 07052B   24294.59048601 -.00000061  00000+0  00000+0 0  9994",
            "Line2": "2 32276  65.8994 336.3228 0010209 308.7538  58.0714  2.13103072132219",
            "SatelliteNumber": "32276",
            "Classification": "U",
            "LaunchYear": "07",
            "LaunchNumber": "052",
            "PieceOfLaunch": "B",
            "EpochYear": "24",
            "EpochDay": 294.59048601,
            "FirstDerivativeMeanMotion": -6.1e-07,
            "SecondDerivativeMeanMotion": "00000+0",
            "BSTAR": "00000+0",
            "SetNumber": "999",
            "Inclination": 65.8994,
            "RAAN": 336.3228,
            "Eccentricity": 0.0010209,
            "ArgumentOfPerigee": 308.7538,
            "MeanAnomaly": 58.0714,
            "MeanMotion": 2.13103072,
            "RevolutionNumber": "13221"
        },
        {
            "Name": "COSMOS 2434 (721)",
            "Line1": "1 32393U 07065A   24294.31881417  .00000020  00000+0  00000+0 0  9992",
            "Line2": "2 32393  64.3175 212.3378 0002382  65.1241  39.5895  2.13101233130883",
            "SatelliteNumber": "32393",
            "Classification": "U",
            "LaunchYear": "07",
            "LaunchNumber": "065",
            "PieceOfLaunch": "A",
            "EpochYear": "24",
            "EpochDay": 294.31881417,
            "FirstDerivativeMeanMotion": 2e-07,
            "SecondDerivativeMeanMotion": "00000+0",
            "BSTAR": "00000+0",
            "SetNumber": "999",
            "Inclination": 64.3175,
            "RAAN": 212.3378,
            "Eccentricity": 0.0002382,
            "ArgumentOfPerigee": 65.1241,
            "MeanAnomaly": 39.5895,
            "MeanMotion": 2.13101233,
            "RevolutionNumber": "13088"
        },
        {
            "Name": "COSMOS 2436 (723)",
            "Line1": "1 32395U 07065C   24293.30877328  .00000024  00000+0  00000+0 0  9992",
            "Line2": "2 32395  64.3262 212.4377 0016839   0.9390 183.7914  2.13099963130819",
            "SatelliteNumber": "32395",
            "Classification": "U",
            "LaunchYear": "07",
            "LaunchNumber": "065",
            "PieceOfLaunch": "C",
            "EpochYear": "24",
            "EpochDay": 293.30877328,
            "FirstDerivativeMeanMotion": 2.4e-07,
            "SecondDerivativeMeanMotion": "00000+0",
            "BSTAR": "00000+0",
            "SetNumber": "999",
            "Inclination": 64.3262,
            "RAAN": 212.4377,
            "Eccentricity": 0.0016839,
            "ArgumentOfPerigee": 0.939,
            "MeanAnomaly": 183.7914,
            "MeanMotion": 2.13099963,
            "RevolutionNumber": "13081"
        },
        {
            "Name": "COSMOS 2456 (730)",
            "Line1": "1 36111U 09070A   24294.43235866  .00000023  00000+0  00000+0 0  9999",
            "Line2": "2 36111  64.6738  91.6599 0001340 327.8087  18.3413  2.13103666115533",
            "SatelliteNumber": "36111",
            "Classification": "U",
            "LaunchYear": "09",
            "LaunchNumber": "070",
            "PieceOfLaunch": "A",
            "EpochYear": "24",
            "EpochDay": 294.43235866,
            "FirstDerivativeMeanMotion": 2.3e-07,
            "SecondDerivativeMeanMotion": "00000+0",
            "BSTAR": "00000+0",
            "SetNumber": "999",
            "Inclination": 64.6738,
            "RAAN": 91.6599,
            "Eccentricity": 0.000134,
            "ArgumentOfPerigee": 327.8087,
            "MeanAnomaly": 18.3413,
            "MeanMotion": 2.13103666,
            "RevolutionNumber": "11553"
        },
        {
            "Name": "COSMOS 2457 (733)",
            "Line1": "1 36112U 09070B   24294.50952066  .00000023  00000+0  00000+0 0  9996",
            "Line2": "2 36112  64.6584  91.5132 0006263 145.3237  33.0020  2.13101110115545",
            "SatelliteNumber": "36112",
            "Classification": "U",
            "LaunchYear": "09",
            "LaunchNumber": "070",
            "PieceOfLaunch": "B",
            "EpochYear": "24",
            "EpochDay": 294.50952066,
            "FirstDerivativeMeanMotion": 2.3e-07,
            "SecondDerivativeMeanMotion": "00000+0",
            "BSTAR": "00000+0",
            "SetNumber": "999",
            "Inclination": 64.6584,
            "RAAN": 91.5132,
            "Eccentricity": 0.0006263,
            "ArgumentOfPerigee": 145.3237,
            "MeanAnomaly": 33.002,
            "MeanMotion": 2.1310111,
            "RevolutionNumber": "11554"
        },
        {
            "Name": "COSMOS 2460 (732)",
            "Line1": "1 36402U 10007C   24294.24043437 -.00000058  00000+0  00000+0 0  9993",
            "Line2": "2 36402  65.7384 334.8620 0002663 244.2871  81.1052  2.13106162113836",
            "SatelliteNumber": "36402",
            "Classification": "U",
            "LaunchYear": "10",
            "LaunchNumber": "007",
            "PieceOfLaunch": "C",
            "EpochYear": "24",
            "EpochDay": 294.24043437,
            "FirstDerivativeMeanMotion": -5.8e-07,
            "SecondDerivativeMeanMotion": "00000+0",
            "BSTAR": "00000+0",
            "SetNumber": "999",
            "Inclination": 65.7384,
            "RAAN": 334.862,
            "Eccentricity": 0.0002663,
            "ArgumentOfPerigee": 244.2871,
            "MeanAnomaly": 81.1052,
            "MeanMotion": 2.13106162,
            "RevolutionNumber": "11383"
        },
        {
            "Name": "COSMOS 2476 (744)",
            "Line1": "1 37867U 11064A   24294.51944707  .00000026  00000+0  00000+0 0  9997",
            "Line2": "2 37867  64.9445  93.3385 0022089 230.3639  94.4231  2.13101532100870",
            "SatelliteNumber": "37867",
            "Classification": "U",
            "LaunchYear": "11",
            "LaunchNumber": "064",
            "PieceOfLaunch": "A",
            "EpochYear": "24",
            "EpochDay": 294.51944707,
            "FirstDerivativeMeanMotion": 2.6e-07,
            "SecondDerivativeMeanMotion": "00000+0",
            "BSTAR": "00000+0",
            "SetNumber": "999",
            "Inclination": 64.9445,
            "RAAN": 93.3385,
            "Eccentricity": 0.0022089,
            "ArgumentOfPerigee": 230.3639,
            "MeanAnomaly": 94.4231,
            "MeanMotion": 2.13101532,
            "RevolutionNumber": "10087"
        },
        {
            "Name": "COSMOS 2477 (745)",
            "Line1": "1 37868U 11064B   24294.80605082  .00000027  00000+0  00000+0 0  9991",
            "Line2": "2 37868  64.9516  93.4025 0019240 230.5048 132.9017  2.13102980100871",
            "SatelliteNumber": "37868",
            "Classification": "U",
            "LaunchYear": "11",
            "LaunchNumber": "064",
            "PieceOfLaunch": "B",
            "EpochYear": "24",
            "EpochDay": 294.80605082,
            "FirstDerivativeMeanMotion": 2.7e-07,
            "SecondDerivativeMeanMotion": "00000+0",
            "BSTAR": "00000+0",
            "SetNumber": "999",
            "Inclination": 64.9516,
            "RAAN": 93.4025,
            "Eccentricity": 0.001924,
            "ArgumentOfPerigee": 230.5048,
            "MeanAnomaly": 132.9017,
            "MeanMotion": 2.1310298,
            "RevolutionNumber": "10087"
        },
        {
            "Name": "COSMOS 2475 (743)",
            "Line1": "1 37869U 11064C   24294.19951705  .00000026  00000+0  00000+0 0  9999",
            "Line2": "2 37869  64.9583  93.4391 0023547 247.5199 328.4298  2.13101706100870",
            "SatelliteNumber": "37869",
            "Classification": "U",
            "LaunchYear": "11",
            "LaunchNumber": "064",
            "PieceOfLaunch": "C",
            "EpochYear": "24",
            "EpochDay": 294.19951705,
            "FirstDerivativeMeanMotion": 2.6e-07,
            "SecondDerivativeMeanMotion": "00000+0",
            "BSTAR": "00000+0",
            "SetNumber": "999",
            "Inclination": 64.9583,
            "RAAN": 93.4391,
            "Eccentricity": 0.0023547,
            "ArgumentOfPerigee": 247.5199,
            "MeanAnomaly": 328.4298,
            "MeanMotion": 2.13101706,
            "RevolutionNumber": "10087"
        }
    ]
}